NORAD_CAT_ID,OBJECT_NAME,OBJECT_TYPE,EPOCH,MEAN_MOTION,ECCENTRICITY,INCLINATION,RA_OF_ASC_NODE,ARG_OF_PERICENTER,MEAN_ANOMALY,BSTAR,MEAN_MOTION_DOT,MEAN_MOTION_DDOT,TLE_LINE0,TLE_LINE1,TLE_LINE2,SEMIMAJOR_AXIS,PERIOD,APOGEE,PERIGEE,DECAYED
53567.0,STARLINK-4585,PAYLOAD,2022-10-15 22:00:01,15.73087429,0.0003326,53.2152,232.0015,11.3754,212.9396,-0.0011677999999999,-0.00160714,0.0,0 STARLINK-4585,1 53567U 22101AS  22288.91668981 -.00160714  00000-0 -11678-2 0  9998,2 53567  53.2152 232.0015 0003326  11.3754 212.9396 15.73087429  9012,6728.215999999999,91.54,352.319,347.843,0.0
53567.0,STARLINK-4585,PAYLOAD,2022-10-16 06:00:00,15.73135725,0.0003241,53.2123,230.3621,14.0304,299.0383,0.00068338,0.00096144,0.0,0 STARLINK-4585,1 53567U 22101AS  22289.25001157  .00096144  00000-0  68338-3 0  9991,2 53567  53.2123 230.3621 0003241  14.0304 299.0383 15.73135725  9061,6728.078,91.537,352.124,347.76300000000015,0.0
53567.0,STARLINK-4585,PAYLOAD,2022-10-16 14:00:01,15.73179303,0.0002969,53.2125,228.7107,12.6212,29.3547,0.00023712,0.00032762,0.0,0 STARLINK-4585,1 53567U 22101AS  22289.58334491  .00032762  00000-0  23712-3 0  9990,2 53567  53.2125 228.7107 0002969  12.6212  29.3547 15.73179303  1306,6727.954000000002,91.534,351.81699999999995,347.82199999999995,0.0
53567.0,STARLINK-4585,PAYLOAD,2022-10-16 22:00:00,15.7324341,0.0002987,53.2125,227.0611,15.216,115.6611,-0.00052484,-0.00073794,0.0,0 STARLINK-4585,1 53567U 22101AS  22289.91667824 -.00073794  00000-0 -52484-3 0  9996,2 53567  53.2125 227.0611 0002987  15.2160 115.6611 15.73243410  1301,6727.771,91.531,351.646,347.62699999999984,0.0
53567.0,STARLINK-4585,PAYLOAD,2022-10-17 14:00:01,15.73122293,0.0002886,53.213,223.7598,10.6646,298.0368,0.00058214,0.00081615,0.0,0 STARLINK-4585,1 53567U 22101AS  22290.58334491  .00081615  00000-0  58214-3 0  9998,2 53567  53.2130 223.7598 0002886  10.6646 298.0368 15.73122293  1300,6728.1169999999975,91.538,351.923,348.04,0.0
53567.0,STARLINK-4585,PAYLOAD,2022-10-17 22:00:00,15.73232152,0.0002803,53.2119,222.1126,9.1274,28.4375,-0.00044557,-0.00062791,0.0,0 STARLINK-4585,1 53567U 22101AS  22290.91667824 -.00062791  00000-0 -44557-3 0  9995,2 53567  53.2119 222.1126 0002803   9.1274  28.4375 15.73232152  9336,6727.804,91.531,351.55400000000014,347.783,0.0
53567.0,STARLINK-4585,PAYLOAD,2022-10-18 14:00:01,15.73150846,0.0002861,53.2123,218.813,11.8194,203.5961,0.00055448,0.00077767,0.0,0 STARLINK-4585,1 53567U 22101AS  22291.58334491  .00077767  00000-0  55448-3 0  9998,2 53567  53.2123 218.8130 0002861  11.8194 203.5961 15.73150846  9430,6728.035,91.536,351.825,347.975,0.0
53567.0,STARLINK-4585,PAYLOAD,2022-10-18 22:00:00,15.73224619,0.0002856999999999,53.2177,217.1527,10.571,293.797,-0.00035021,-0.00049546,0.0,0 STARLINK-4585,1 53567U 22101AS  22291.91667824 -.00049546  00000-0 -35021-3 0  9995,2 53567  53.2177 217.1527 0002857  10.5710 293.7970 15.73224619  1305,6727.825,91.532,351.612,347.76800000000014,0.0
53567.0,STARLINK-4585,PAYLOAD,2022-10-19 06:00:00,15.73366661,0.0002563,53.2155,215.5081,336.815,56.4406,-0.0061173,-0.00788854,0.0,0 STARLINK-4585,1 53567U 22101AS  22292.25001157 -.00788854  00000-0 -61173-2 0  9992,2 53567  53.2155 215.5081 0002563 336.8150  56.4406 15.73366661  9539,6727.42,91.523,351.009,347.561,0.0
53567.0,STARLINK-4585,PAYLOAD,2022-10-19 14:00:01,15.728090300000002,0.0003625,53.2174,213.8533,293.777,188.2785,-0.0088797,-0.01098832,0.0,0 STARLINK-4585,1 53567U 22101AS  22292.58334491 -.01098832  00000-0 -88797-2 0  9990,2 53567  53.2174 213.8533 0003625 293.7770 188.2785 15.72809030  9593,6729.01,91.556,353.314,348.436,0.0
53567.0,STARLINK-4585,PAYLOAD,2022-10-19 22:00:00,15.72013786,0.0006246,53.2175,212.2063,274.0016,296.0236,-0.0094677,-0.01130412,0.0,0 STARLINK-4585,1 53567U 22101AS  22292.91667824 -.01130412  00000-0 -94677-2 0  9991,2 53567  53.2175 212.2063 0006246 274.0016 296.0236 15.72013786  1307,6731.279,91.602,357.349,348.94,0.0
53567.0,STARLINK-4585,PAYLOAD,2022-10-20 06:00:00,15.71196345,0.0006799,53.2172,210.5621,271.6074,25.4168,-0.0097343,-0.01123659,0.0,0 STARLINK-4585,1 53567U 22101AS  22293.25001157 -.01123659  00000-0 -97343-2 0  9998,2 53567  53.2172 210.5621 0006799 271.6074  25.4168 15.71196345  9695,6733.614000000001,91.65,360.057,350.901,0.0
53567.0,STARLINK-4585,PAYLOAD,2022-10-20 14:00:01,15.70378884,0.0006083999999999,53.2174,208.9163,269.5614,113.4864,-0.0100159999999999,-0.01117033,0.0,0 STARLINK-4585,1 53567U 22101AS  22293.58334491 -.01117033  00000-0 -10016-1 0  9994,2 53567  53.2174 208.9163 0006084 269.5614 113.4864 15.70378884  1302,6735.95,91.698,361.913,353.717,0.0
53567.0,STARLINK-4585,PAYLOAD,2022-10-20 22:00:00,15.69582443,0.0002765,53.2176,207.2755,272.4835,195.6009,-0.01067,-0.01164115,0.0,0 STARLINK-4585,1 53567U 22101AS  22293.91667824 -.01164115  00000-0 -10670-1 0  9999,2 53567  53.2176 207.2755 0002765 272.4835 195.6009 15.69582443  1302,6738.229,91.744,361.957,358.231,0.0
53567.0,STARLINK-4585,PAYLOAD,2022-10-21 06:00:00,15.6875522,7.62e-05,53.2173,205.6368,281.3536,270.8009,-0.01081,-0.01140922,0.0,0 STARLINK-4585,1 53567U 22101AS  22294.25001157 -.01140922  00000-0 -10810-1 0  9994,2 53567  53.2173 205.6368 0000762 281.3536 270.8009 15.68755220  9851,6740.597,91.793,362.976,361.949,0.0
53567.0,STARLINK-4585,PAYLOAD,2022-10-21 14:00:01,15.67933945,4.8e-05,53.2174,203.9971,93.5536,181.692,-0.011042,-0.01127738,0.0,0 STARLINK-4585,1 53567U 22101AS  22294.58334491 -.01127738  00000-0 -11042-1 0  9998,2 53567  53.2174 203.9971 0000480  93.5536 181.6920 15.67933945  1307,6742.951,91.841,365.14,364.492,0.0
53567.0,STARLINK-4585,PAYLOAD,2022-10-21 22:00:00,15.67129504,0.0001157,53.217,202.3627,60.6797,296.6703,-0.011575,-0.01142509,0.0,0 STARLINK-4585,1 53567U 22101AS  22294.91667824 -.01142509  00000-0 -11575-1 0  9998,2 53567  53.2170 202.3627 0001157  60.6797 296.6703 15.67129504  1304,6745.2580000000025,91.888,367.904,366.343,0.0
53567.0,STARLINK-4585,PAYLOAD,2022-10-22 06:00:00,15.66312253,0.0001242,53.2171,200.7296,50.988,27.4945,-0.0118909999999999,-0.01135949,0.0,0 STARLINK-4585,1 53567U 22101AS  22295.25001157 -.01135949  00000-0 -11891-1 0  9998,2 53567  53.2171 200.7296 0001242  50.9880  27.4945 15.66312253 10019,6747.604,91.936,370.307,368.631,0.0
53567.0,STARLINK-4585,PAYLOAD,2022-10-22 14:00:01,15.65498304,0.0001199,53.2169,199.0966,66.6492,91.9879,-0.012288,-0.01135827,0.0,0 STARLINK-4585,1 53567U 22101AS  22295.58334491 -.01135827  00000-0 -12288-1 0  9990,2 53567  53.2169 199.0966 0001199  66.6492  91.9879 15.65498304  1309,6749.943,91.983,372.617,370.999,0.0
53567.0,STARLINK-4585,PAYLOAD,2022-10-22 22:00:00,15.64687286,0.0001177,53.2168,197.4678,78.84100000000002,158.9699,-0.0127319999999999,-0.01138805,0.0,0 STARLINK-4585,1 53567U 22101AS  22295.91667824 -.01138805  00000-0 -12732-1 0  9999,2 53567  53.2168 197.4678 0001177  78.8410 158.9699 15.64687286  1303,6752.275,92.031,374.935,373.346,0.0
53567.0,STARLINK-4585,PAYLOAD,2022-10-23 14:00:01,15.63055788,0.0001060999999999,53.2174,194.2122,62.628,330.6043,-0.013518,-0.01133611,0.0,0 STARLINK-4585,1 53567U 22101AS  22296.58334491 -.01133611  00000-0 -13518-1 0  9997,2 53567  53.2174 194.2122 0001061  62.6280 330.6043 15.63055788 10225,6756.973000000001,92.127,379.555,378.121,0.0
53567.0,STARLINK-4585,PAYLOAD,2022-10-23 22:00:00,15.62260581,0.0001151,53.217,192.5904,81.2275,28.2374,-0.014293,-0.01158985,0.0,0 STARLINK-4585,1 53567U 22101AS  22296.91667824 -.01158985  00000-0 -14293-1 0  9995,2 53567  53.2170 192.5904 0001151  81.2275  28.2374 15.62260581  1305,6759.266,92.174,381.909,380.353,0.0
53567.0,STARLINK-4585,PAYLOAD,2022-10-24 06:00:00,15.61431709,0.0001242,53.2163,190.9695,67.5749,117.1602,-0.014453,-0.01136898,0.0,0 STARLINK-4585,1 53567U 22101AS  22297.25001157 -.01136898  00000-0 -14453-1 0  9991,2 53567  53.2163 190.9695 0001242  67.5749 117.1602 15.61431709 10325,6761.658,92.223,384.362,382.6830000000001,0.0
53567.0,STARLINK-4585,PAYLOAD,2022-10-24 14:00:01,15.60614387,0.0001154,53.2173,189.3466,79.1554,179.8701,-0.0148469999999999,-0.01131871,0.0,0 STARLINK-4585,1 53567U 22101AS  22297.58334491 -.01131871  00000-0 -14847-1 0  9990,2 53567  53.2173 189.3466 0001154  79.1554 179.8701 15.60614387  1306,6764.018,92.271,386.664,385.103,0.0
53567.0,STARLINK-4585,PAYLOAD,2022-10-24 22:00:00,15.5981914,9.75e-05,53.2167,187.7307,88.3918,243.9336,-0.015697,-0.01157667,0.0,0 STARLINK-4585,1 53567U 22101AS  22297.91667824 -.01157667  00000-0 -15697-1 0  9991,2 53567  53.2167 187.7307 0000975  88.3918 243.9336 15.59819140 10423,6766.316999999999,92.318,388.842,387.522,0.0
53567.0,STARLINK-4585,PAYLOAD,2022-10-25 14:00:01,15.58174371,0.0001159,53.2173,184.4986,77.4983,38.5195,-0.016334,-0.01133797,0.0,0 STARLINK-4585,1 53567U 22101AS  22298.58334491 -.01133797  00000-0 -16334-1 0  9993,2 53567  53.2173 184.4986 0001159  77.4983  38.5195 15.58174371  1300,6771.078,92.416,393.728,392.158,0.0
53567.0,STARLINK-4585,PAYLOAD,2022-10-25 22:00:01,15.57362426,0.0001209,53.2168,182.8887,85.3566,101.099,-0.016867,-0.01135223,0.0,0 STARLINK-4585,1 53567U 22101AS  22298.91668981 -.01135223  00000-0 -16867-1 0  9991,2 53567  53.2168 182.8887 0001209  85.3566 101.0990 15.57362426 10585,6773.431,92.464,396.115,394.477,0.0
53567.0,STARLINK-4585,PAYLOAD,2022-10-26 14:00:01,15.55730606,0.000108,53.2174,179.6683,73.212,250.9986,-0.017818,-0.01128697,0.0,0 STARLINK-4585,1 53567U 22101AS  22299.58334491 -.01128697  00000-0 -17818-1 0  9995,2 53567  53.2174 179.6683 0001080  73.2120 250.9986 15.55730606  1305,6778.167,92.561,400.764,399.3,0.0
53567.0,STARLINK-4585,PAYLOAD,2022-10-26 22:00:00,15.54919805,0.0001112,53.2176,178.06400000000005,69.3075,322.3423,-0.018431,-0.01132502,0.0,0 STARLINK-4585,1 53567U 22101AS  22299.91667824 -.01132502  00000-0 -18431-1 0  9993,2 53567  53.2176 178.0640 0001112  69.3075 322.3423 15.54919805  1303,6780.523,92.609,403.142,401.634,0.0
